[{"OBJECT_NAME":"YAOGAN-25 01A","OBJECT_ID":"2014-080A","EPOCH":"2026-03-09T23:32:14.209728","MEAN_MOTION":13.45404366,"ECCENTRICITY":0.03579203,"INCLINATION":63.3877,"RA_OF_ASC_NODE":206.3701,"ARG_OF_PERICENTER":8.6689,"MEAN_ANOMALY":352.0301,"EPHEMERIS_TYPE":0,"CLASSIFICATION_TYPE":"U","NORAD_CAT_ID":40338,"ELEMENT_SET_NO":999,"REV_AT_EPOCH":55231,"BSTAR":-7.4174309e-5,"MEAN_MOTION_DOT":-1.55e-6,"MEAN_MOTION_DDOT":0},{"OBJECT_NAME":"ONEWEB-0169","OBJECT_ID":"2021-025AM","EPOCH":"2026-03-09T18:32:16.213632","MEAN_MOTION":13.13469688,"ECCENTRICITY":0.00015539,"INCLINATION":87.9037,"RA_OF_ASC_NODE":339.9987,"ARG_OF_PERICENTER":75.942,"MEAN_ANOMALY":284.1882,"EPHEMERIS_TYPE":0,"CLASSIFICATION_TYPE":"U","NORAD_CAT_ID":48077,"ELEMENT_SET_NO":999,"REV_AT_EPOCH":23925,"BSTAR":-0.00064238077,"MEAN_MOTION_DOT":-2.22e-6,"MEAN_MOTION_DDOT":0}]
